{"type": "FeatureCollection", "features": [ {"type": "Feature", "properties": {"norad_id": 39634, "name": "SENTINEL-1A", "group": "resource", "lat": -66.42221101785036, "lon": 19.83518828465026, "alt_km": 703.7901569389305, "timestamp": "2025-12-21T11:31:42.498882+00:00", "meta": {"OBJECT_NAME": "SENTINEL-1A", "OBJECT_ID": "2014-016A", "EPOCH": "2025-12-21T03:36:36.967104", "MEAN_MOTION": 14.5920104, "ECCENTRICITY": 0.0001273, "INCLINATION": 98.1795, "RA_OF_ASC_NODE": 0.2677, "ARG_OF_PERICENTER": 86.2215, "MEAN_ANOMALY": 273.9131, "EPHEMERIS_TYPE": 0, "CLASSIFICATION_TYPE": "U", "NORAD_CAT_ID": 39634, "ELEMENT_SET_NO": 999, "REV_AT_EPOCH": 62405, "BSTAR": 7.5855e-05, "MEAN_MOTION_DOT": 3.12e-06, "MEAN_MOTION_DDOT": 0}, "tle": {"line1": "1 39634U 14016A   25355.15042786  .00000312  00000+0  75855-4 0  9999", "line2": "2 39634  98.1795   0.2677 0001273  86.2215 273.9131 14.59201040624054"}}, "geometry": {"type": "Point", "coordinates": [19.83518828465026, -66.42221101785036]}}, {"type": "Feature", "properties": {"norad_id": 39731, "name": "KAZEOSAT 1", "group": "resource", "lat": 81.50475198180354, "lon": -12.064425919462376, "alt_km": 743.3908645083511, "timestamp": "2025-12-21T11:31:42.498892+00:00", "meta": {"OBJECT_NAME": "KAZEOSAT 1", "OBJECT_ID": "2014-024A", "EPOCH": "2025-12-21T04:27:32.629248", "MEAN_MOTION": 14.4206658, "ECCENTRICITY": 0.0001177, "INCLINATION": 98.3431, "RA_OF_ASC_NODE": 66.9039, "ARG_OF_PERICENTER": 98.7767, "MEAN_ANOMALY": 261.3556, "EPHEMERIS_TYPE": 0, "CLASSIFICATION_TYPE": "U", "NORAD_CAT_ID": 39731, "ELEMENT_SET_NO": 999, "REV_AT_EPOCH": 61290, "BSTAR": 2.1377e-05, "MEAN_MOTION_DOT": 2.7e-07, "MEAN_MOTION_DDOT": 0}, "tle": {"line1": "1 39731U 14024A   25355.18579432  .00000027  00000+0  21377-4 0  9995", "line2": "2 39731  98.3431  66.9039 0001177  98.7767 261.3556 14.42066580612908"}}, "geometry": {"type": "Point", "coordinates": [-12.064425919462376, 81.50475198180354]}}, {"type": "Feature", "properties": {"norad_id": 39766, "name": "ALOS-2", "group": "resource", "lat": 66.20320255342727, "lon": 71.79273534755677, "alt_km": 623.6921004694013, "timestamp": "2025-12-21T11:31:42.498902+00:00", "meta": {"OBJECT_NAME": "ALOS-2", "OBJECT_ID": "2014-029A", "EPOCH": "2025-12-21T04:43:54.507360", "MEAN_MOTION": 14.79470972, "ECCENTRICITY": 0.0001402, "INCLINATION": 97.9231, "RA_OF_ASC_NODE": 89.9231, "ARG_OF_PERICENTER": 98.7565, "MEAN_ANOMALY": 261.3805, "EPHEMERIS_TYPE": 0, "CLASSIFICATION_TYPE": "U", "NORAD_CAT_ID": 39766, "ELEMENT_SET_NO": 999, "REV_AT_EPOCH": 62526, "BSTAR": 0.00017939, "MEAN_MOTION_DOT": 1.288e-05, "MEAN_MOTION_DDOT": 0}, "tle": {"line1": "1 39766U 14029A   25355.19715865  .00001288  00000+0  17939-3 0  9999", "line2": "2 39766  97.9231  89.9231 0001402  98.7565 261.3805 14.79470972625269"}}, "geometry": {"type": "Point", "coordinates": [71.79273534755677, 66.20320255342727]}}, {"type": "Feature", "properties": {"norad_id": 40010, "name": "KAZEOSAT 2", "group": "resource", "lat": 22.992635693223686, "lon": 22.569014242957376, "alt_km": 607.1514323045249, "timestamp": "2025-12-21T11:31:42.498913+00:00", "meta": {"OBJECT_NAME": "KAZEOSAT 2", "OBJECT_ID": "2014-033A", "EPOCH": "2025-12-21T04:21:26.146368", "MEAN_MOTION": 14.85179073, "ECCENTRICITY": 0.0008367, "INCLINATION": 97.5495, "RA_OF_ASC_NODE": 199.0598, "ARG_OF_PERICENTER": 177.3832, "MEAN_ANOMALY": 182.7429, "EPHEMERIS_TYPE": 0, "CLASSIFICATION_TYPE": "U", "NORAD_CAT_ID": 40010, "ELEMENT_SET_NO": 999, "REV_AT_EPOCH": 62253, "BSTAR": 4.5298e-05, "MEAN_MOTION_DOT": 3.38e-06, "MEAN_MOTION_DDOT": 0}, "tle": {"line1": "1 40010U 14033A   25355.18155262  .00000338  00000+0  45298-4 0  9991", "line2": "2 40010  97.5495 199.0598 0008367 177.3832 182.7429 14.85179073622538"}}, "geometry": {"type": "Point", "coordinates": [22.569014242957376, 22.992635693223686]}}, {"type": "Feature", "properties": {"norad_id": 40011, "name": "HODOYOSHI-4", "group": "resource", "lat": -42.045875556687605, "lon": -169.20657996524776, "alt_km": 626.2085944395621, "timestamp": "2025-12-21T11:31:42.498923+00:00", "meta": {"OBJECT_NAME": "HODOYOSHI-4", "OBJECT_ID": "2014-033B", "EPOCH": "2025-12-21T03:38:52.267776", "MEAN_MOTION": 14.87509331, "ECCENTRICITY": 0.0023838, "INCLINATION": 97.5405, "RA_OF_ASC_NODE": 183.6204, "ARG_OF_PERICENTER": 172.3373, "MEAN_ANOMALY": 187.8213, "EPHEMERIS_TYPE": 0, "CLASSIFICATION_TYPE": "U", "NORAD_CAT_ID": 40011, "ELEMENT_SET_NO": 999, "REV_AT_EPOCH": 62233, "BSTAR": 0.0001728, "MEAN_MOTION_DOT": 1.523e-05, "MEAN_MOTION_DDOT": 0}, "tle": {"line1": "1 40011U 14033B   25355.15199384  .00001523  00000+0  17280-3 0  9998", "line2": "2 40011  97.5405 183.6204 0023838 172.3373 187.8213 14.87509331622339"}}, "geometry": {"type": "Point", "coordinates": [-169.20657996524776, -42.045875556687605]}}, {"type": "Feature", "properties": {"norad_id": 40013, "name": "DEIMOS-2", "group": "resource", "lat": -71.12663626645892, "lon": -105.99589087954438, "alt_km": 596.9057876443958, "timestamp": "2025-12-21T11:31:42.498934+00:00", "meta": {"OBJECT_NAME": "DEIMOS-2", "OBJECT_ID": "2014-033D", "EPOCH": "2025-12-21T05:25:10.856640", "MEAN_MOTION": 14.93010508, "ECCENTRICITY": 0.0001513, "INCLINATION": 97.6068, "RA_OF_ASC_NODE": 230.746, "ARG_OF_PERICENTER": 102.9773, "MEAN_ANOMALY": 257.1616, "EPHEMERIS_TYPE": 0, "CLASSIFICATION_TYPE": "U", "NORAD_CAT_ID": 40013, "ELEMENT_SET_NO": 999, "REV_AT_EPOCH": 61116, "BSTAR": 0.00022215, "MEAN_MOTION_DOT": 2.255e-05, "MEAN_MOTION_DDOT": 0}, "tle": {"line1": "1 40013U 14033D   25355.22582010  .00002255  00000+0  22215-3 0  9997", "line2": "2 40013  97.6068 230.7460 0001513 102.9773 257.1616 14.93010508611161"}}, "geometry": {"type": "Point", "coordinates": [-105.99589087954438, -71.12663626645892]}}, {"type": "Feature", "properties": {"norad_id": 40015, "name": "HODOYOSHI-3", "group": "resource", "lat": 21.198482234949168, "lon": -16.088160499077375, "alt_km": 602.5819683982709, "timestamp": "2025-12-21T11:31:42.498945+00:00", "meta": {"OBJECT_NAME": "HODOYOSHI-3", "OBJECT_ID": "2014-033F", "EPOCH": "2025-12-21T04:20:42.434880", "MEAN_MOTION": 14.84832203, "ECCENTRICITY": 0.003229, "INCLINATION": 97.6204, "RA_OF_ASC_NODE": 160.6492, "ARG_OF_PERICENTER": 219.1772, "MEAN_ANOMALY": 140.7106, "EPHEMERIS_TYPE": 0, "CLASSIFICATION_TYPE": "U", "NORAD_CAT_ID": 40015, "ELEMENT_SET_NO": 999, "REV_AT_EPOCH": 62120, "BSTAR": 0.00013721, "MEAN_MOTION_DOT": 1.123e-05, "MEAN_MOTION_DDOT": 0}, "tle": {"line1": "1 40015U 14033F   25355.18104670  .00001123  00000+0  13721-3 0  9991", "line2": "2 40015  97.6204 160.6492 0032290 219.1772 140.7106 14.84832203621208"}}, "geometry": {"type": "Point", "coordinates": [-16.088160499077375, 21.198482234949168]}}, {"type": "Feature", "properties": {"norad_id": 40053, "name": "SPOT 7", "group": "resource", "lat": -25.054637560432205, "lon": -126.4578730460165, "alt_km": 696.929640364865, "timestamp": "2025-12-21T11:31:42.498956+00:00", "meta": {"OBJECT_NAME": "SPOT 7", "OBJECT_ID": "2014-034A", "EPOCH": "2025-12-21T04:00:58.110336", "MEAN_MOTION": 14.60743427, "ECCENTRICITY": 0.0001547, "INCLINATION": 98.0901, "RA_OF_ASC_NODE": 57.0489, "ARG_OF_PERICENTER": 85.6827, "MEAN_ANOMALY": 274.4551, "EPHEMERIS_TYPE": 0, "CLASSIFICATION_TYPE": "U", "NORAD_CAT_ID": 40053, "ELEMENT_SET_NO": 999, "REV_AT_EPOCH": 61114, "BSTAR": 7.6e-05, "MEAN_MOTION_DOT": 3.25e-06, "MEAN_MOTION_DDOT": 0}, "tle": {"line1": "1 40053U 14034A   25355.16733924  .00000325  00000+0  76000-4 0  9995", "line2": "2 40053  98.0901  57.0489 0001547  85.6827 274.4551 14.60743427611146"}}, "geometry": {"type": "Point", "coordinates": [-126.4578730460165, -25.054637560432205]}}, {"type": "Feature", "properties": {"norad_id": 40072, "name": "SKYSAT-B", "group": "resource", "lat": -74.08765383206423, "lon": 88.58689470142475, "alt_km": 616.5523678070576, "timestamp": "2025-12-21T11:31:42.498966+00:00", "meta": {"OBJECT_NAME": "SKYSAT-B", "OBJECT_ID": "2014-037D", "EPOCH": "2025-12-21T02:18:24.374016", "MEAN_MOTION": 14.87353846, "ECCENTRICITY": 0.0006659, "INCLINATION": 98.3623, "RA_OF_ASC_NODE": 299.2438, "ARG_OF_PERICENTER": 126.731, "MEAN_ANOMALY": 233.4517, "EPHEMERIS_TYPE": 0, "CLASSIFICATION_TYPE": "U", "NORAD_CAT_ID": 40072, "ELEMENT_SET_NO": 999, "REV_AT_EPOCH": 61948, "BSTAR": 0.00013429, "MEAN_MOTION_DOT": 1.152e-05, "MEAN_MOTION_DDOT": 0}, "tle": {"line1": "1 40072U 14037D   25355.09611544  .00001152  00000+0  13429-3 0  9998", "line2": "2 40072  98.3623 299.2438 0006659 126.7310 233.4517 14.87353846619481"}}, "geometry": {"type": "Point", "coordinates": [88.58689470142475, -74.08765383206423]}}, {"type": "Feature", "properties": {"norad_id": 40115, "name": "WORLDVIEW-3 (WV-3)", "group": "resource", "lat": 75.95202590135479, "lon": 34.05956263298377, "alt_km": 606.7338561812339, "timestamp": "2025-12-21T11:31:42.498976+00:00", "meta": {"OBJECT_NAME": "WORLDVIEW-3 (WV-3)", "OBJECT_ID": "2014-048A", "EPOCH": "2025-12-21T04:42:24.761088", "MEAN_MOTION": 14.84665073, "ECCENTRICITY": 0.0001832, "INCLINATION": 97.8769, "RA_OF_ASC_NODE": 67.3721, "ARG_OF_PERICENTER": 135.4397, "MEAN_ANOMALY": 224.6965, "EPHEMERIS_TYPE": 0, "CLASSIFICATION_TYPE": "U", "NORAD_CAT_ID": 40115, "ELEMENT_SET_NO": 999, "REV_AT_EPOCH": 61549, "BSTAR": 9.1274e-05, "MEAN_MOTION_DOT": 7.19e-06, "MEAN_MOTION_DDOT": 0}, "tle": {"line1": "1 40115U 14048A   25355.19611992  .00000719  00000+0  91274-4 0  9999", "line2": "2 40115  97.8769  67.3721 0001832 135.4397 224.6965 14.84665073615494"}}, "geometry": {"type": "Point", "coordinates": [34.05956263298377, 75.95202590135479]}}]}